COMMENT,ORIGINATOR,NORAD_CAT_ID,OBJECT_NAME,OBJECT_TYPE,CLASSIFICATION_TYPE,INTLDES,EPOCH,EPOCH_MICROSECONDS,MEAN_MOTION,ECCENTRICITY,INCLINATION,RA_OF_ASC_NODE,ARG_OF_PERICENTER,MEAN_ANOMALY,EPHEMERIS_TYPE,ELEMENT_SET_NO,REV_AT_EPOCH,BSTAR,MEAN_MOTION_DOT,MEAN_MOTION_DDOT,FILE,TLE_LINE0,TLE_LINE1,TLE_LINE2,OBJECT_ID,OBJECT_NUMBER,SEMIMAJOR_AXIS,PERIOD,APOGEE,PERIGEE,DECAYED
GENERATED VIA SPACETRACK.ORG API,18 SPCS,52365,STARLINK-3874,PAYLOAD,U,22045AL,2022-06-16 02:00:01,224,15.73201507,0.0002831,53.2139,202.6763,10.2753,290.9806,0,999,130,0.00039234,0.00054813,0,3497002,0 STARLINK-3874,1 52365U 22045AL  22167.08334491  .00054813  00000-0  39234-3 0  9999,2 52365  53.2139 202.6763 0002831  10.2753 290.9806 15.73201507  1303,2022-045AL,52365,6727.891,91.533,351.661,347.851,0
GENERATED VIA SPACETRACK.ORG API,18 SPCS,52365,STARLINK-3874,PAYLOAD,U,22045AL,2022-06-19 14:00:01,224,15.73258868,0.0003563,53.2141,185.3564,1.0613,334.6877,0,999,130,-0.0019698,-0.00269239,0,3497010,0 STARLINK-3874,1 52365U 22045AL  22170.58334491 -.00269239  00000-0 -19698-2 0  9991,2 52365  53.2141 185.3564 0003563   1.0613 334.6877 15.73258868  1304,2022-045AL,52365,6727.727,91.53,351.989,347.195,0
GENERATED VIA SPACETRACK.ORG API,18 SPCS,52365,STARLINK-3874,PAYLOAD,U,22045AL,2022-06-19 20:00:01,224,15.73058843,0.0003348,53.2146,184.1176,4.016,308.4284,0,999,1056,-0.00061888,-0.00086107,0,3497126,0 STARLINK-3874,1 52365U 22045AL  22170.83334491 -.00086107  00000-0 -61888-3 0  9999,2 52365  53.2146 184.1176 0003348   4.0160 308.4284 15.73058843 10566,2022-045AL,52365,6728.298,91.541,352.415,347.91,0
GENERATED VIA SPACETRACK.ORG API,18 SPCS,52365,STARLINK-3874,PAYLOAD,U,22045AL,2022-06-19 22:00:00,999936,15.7299914,0.0003323,53.2145,183.7048,3.6858,60.9583,0,999,130,0.00014683,0.00019862,0,3497669,0 STARLINK-3874,1 52365U 22045AL  22170.91667824  .00019862  00000-0  14683-3 0  9990,2 52365  53.2145 183.7048 0003323   3.6858  60.9583 15.72999140  1307,2022-045AL,52365,6728.468,91.545,352.569,348.097,0
GENERATED VIA SPACETRACK.ORG API,18 SPCS,52365,STARLINK-3874,PAYLOAD,U,22045AL,2022-06-20 06:00:00,999648,15.73202678,0.0003537,53.2175,182.0552,9.786,143.0652,0,999,1063,2.1709e-05,2.425e-05,0,3497817,0 STARLINK-3874,1 52365U 22045AL  22171.25001157  .00002425  00000-0  21709-4 0  9994,2 52365  53.2175 182.0552 0003537   9.7860 143.0652 15.73202678 10639,2022-045AL,52365,6727.888,91.533,352.132,347.373,0
GENERATED VIA SPACETRACK.ORG API,18 SPCS,52365,STARLINK-3874,PAYLOAD,U,22045AL,2022-06-20 12:00:00,999648,15.73018024,0.0003649,53.2142,180.8211,5.0497,124.9427,0,999,1067,0.00064315,0.0008993,0,3497985,0 STARLINK-3874,1 52365U 22045AL  22171.50001157  .00089930  00000-0  64315-3 0  9997,2 52365  53.2142 180.8211 0003649   5.0497 124.9427 15.73018024 10672,2022-045AL,52365,6728.414,91.544,352.734,347.824,0
GENERATED VIA SPACETRACK.ORG API,18 SPCS,52365,STARLINK-3874,PAYLOAD,U,22045AL,2022-06-20 14:00:01,224,15.73054437,0.0003617,53.2139,180.4083,4.9162,237.2512,0,999,130,0.00024647,0.00033903,0,3498071,0 STARLINK-3874,1 52365U 22045AL  22171.58334491  .00033903  00000-0  24647-3 0  9998,2 52365  53.2139 180.4083 0003617   4.9162 237.2512 15.73054437  1304,2022-045AL,52365,6728.31,91.542,352.609,347.742,0
GENERATED VIA SPACETRACK.ORG API,18 SPCS,52365,STARLINK-3874,PAYLOAD,U,22045AL,2022-06-20 22:00:00,999936,15.73060259,0.0003325,53.2141,178.7573,6.5181,324.4314,0,999,130,0.00071414,0.00100224,0,3498404,0 STARLINK-3874,1 52365U 22045AL  22171.91667824  .00100224  00000-0  71414-3 0  9999,2 52365  53.2141 178.7573 0003325   6.5181 324.4314 15.73060259  1304,2022-045AL,52365,6728.294,91.541,352.396,347.921,0
GENERATED VIA SPACETRACK.ORG API,18 SPCS,52365,STARLINK-3874,PAYLOAD,U,22045AL,2022-06-21 06:00:00,999648,15.73142823,0.0003483,53.2143,177.1098,7.6064,52.1528,0,999,1079,0.00021675,0.00029839,0,3498623,0 STARLINK-3874,1 52365U 22045AL  22172.25001157  .00029839  00000-0  21675-3 0  9994,2 52365  53.2143 177.1098 0003483   7.6064  52.1528 15.73142823 10791,2022-045AL,52365,6728.058,91.537,352.267,347.58,0
GENERATED VIA SPACETRACK.ORG API,18 SPCS,52365,STARLINK-3874,PAYLOAD,U,22045AL,2022-06-21 14:00:01,224,15.73172124,0.0003588,53.2143,175.4605,7.5873,141.0218,0,999,130,0.0002368,0.0003271,0,3498878,0 STARLINK-3874,1 52365U 22045AL  22172.58334491  .00032710  00000-0  23680-3 0  9990,2 52365  53.2143 175.4605 0003588   7.5873 141.0218 15.73172124  1307,2022-045AL,52365,6727.975,91.535,352.254,347.426,0
GENERATED VIA SPACETRACK.ORG API,18 SPCS,52365,STARLINK-3874,PAYLOAD,U,22045AL,2022-06-21 22:00:00,999936,15.73179199,0.0003358,53.2146,173.8091,8.4547,229.0541,0,999,130,0.00045162,0.00063196,0,3499203,0 STARLINK-3874,1 52365U 22045AL  22172.91667824  .00063196  00000-0  45162-3 0  9997,2 52365  53.2146 173.8091 0003358   8.4547 229.0541 15.73179199  1309,2022-045AL,52365,6727.954,91.534,352.079,347.56,0
GENERATED VIA SPACETRACK.ORG API,18 SPCS,52365,STARLINK-3874,PAYLOAD,U,22045AL,2022-06-22 14:00:01,224,15.73195552,0.0003613,53.2138,170.5117,7.0062,48.3435,0,999,130,0.00015275,0.0002087,0,3499789,0 STARLINK-3874,1 52365U 22045AL  22173.58334491  .00020870  00000-0  15275-3 0  9996,2 52365  53.2138 170.5117 0003613   7.0062  48.3435 15.73195552  1309,2022-045AL,52365,6727.908,91.533,352.204,347.342,0
GENERATED VIA SPACETRACK.ORG API,18 SPCS,52365,STARLINK-3874,PAYLOAD,U,22045AL,2022-06-22 16:00:00,999936,15.73209025,0.0003509,53.214,170.0988,7.3735,160.2042,0,999,1101,2.2753e-05,2.573e-05,0,3499733,0 STARLINK-3874,1 52365U 22045AL  22173.66667824  .00002573  00000-0  22753-4 0  9994,2 52365  53.2140 170.0988 0003509   7.3735 160.2042 15.73209025 11015,2022-045AL,52365,6727.869,91.533,352.095,347.374,0
GENERATED VIA SPACETRACK.ORG API,18 SPCS,52365,STARLINK-3874,PAYLOAD,U,22045AL,2022-06-22 22:00:00,999936,15.73206711,0.0003283,53.214,168.8605,8.1563,136.1382,0,999,1105,0.00061727,0.00086952,0,3499973,0 STARLINK-3874,1 52365U 22045AL  22173.91667824  .00086952  00000-0  61727-3 0  9998,2 52365  53.2140 168.8605 0003283   8.1563 136.1382 15.73206711 11055,2022-045AL,52365,6727.876,91.533,351.95,347.532,0
GENERATED VIA SPACETRACK.ORG API,18 SPCS,52365,STARLINK-3874,PAYLOAD,U,22045AL,2022-06-22 22:00:00,999936,15.73206711,0.0003283,53.214,168.8605,8.1563,136.1382,0,999,130,0.00061727,0.00086952,0,3500001,0 STARLINK-3874,1 52365U 22045AL  22173.91667824  .00086952  00000-0  61727-3 0  9998,2 52365  53.2140 168.8605 0003283   8.1563 136.1382 15.73206711  1302,2022-045AL,52365,6727.876,91.533,351.95,347.532,0
GENERATED VIA SPACETRACK.ORG API,18 SPCS,52365,STARLINK-3874,PAYLOAD,U,22045AL,2022-06-23 06:00:00,999648,15.73269658,0.0003507,53.214,167.2129,7.5154,225.7435,0,999,1110,-0.0005458,-0.00076785,0,3500236,0 STARLINK-3874,1 52365U 22045AL  22174.25001157 -.00076785  00000-0 -54580-3 0  9991,2 52365  53.2140 167.2129 0003507   7.5154 225.7435 15.73269658 11106,2022-045AL,52365,6727.697,91.529,351.921,347.202,0
GENERATED VIA SPACETRACK.ORG API,18 SPCS,52365,STARLINK-3874,PAYLOAD,U,22045AL,2022-06-23 14:00:01,224,15.73263271,0.0003536,53.214,165.5629,6.4905,315.7386,0,999,130,-0.00058219,-0.00081794,0,3500539,0 STARLINK-3874,1 52365U 22045AL  22174.58334491 -.00081794  00000-0 -58219-3 0  9996,2 52365  53.2140 165.5629 0003536   6.4905 315.7386 15.73263271  1307,2022-045AL,52365,6727.715,91.529,351.959,347.201,0
GENERATED VIA SPACETRACK.ORG API,18 SPCS,52365,STARLINK-3874,PAYLOAD,U,22045AL,2022-06-23 22:00:00,999936,15.73181783,0.0003357,53.2146,163.9105,11.1698,40.0618,0,999,1121,0.00054713,0.00076826,0,3500764,0 STARLINK-3874,1 52365U 22045AL  22174.91667824  .00076826  00000-0  54713-3 0  9995,2 52365  53.2146 163.9105 0003357  11.1698  40.0618 15.73181783 11211,2022-045AL,52365,6727.947,91.534,352.071,347.554,0
GENERATED VIA SPACETRACK.ORG API,18 SPCS,52365,STARLINK-3874,PAYLOAD,U,22045AL,2022-06-23 22:00:00,999936,15.73181783,0.0003357,53.2146,163.9105,11.1698,40.0618,0,999,130,0.00054713,0.00076826,0,3501177,0 STARLINK-3874,1 52365U 22045AL  22174.91667824  .00076826  00000-0  54713-3 0  9995,2 52365  53.2146 163.9105 0003357  11.1698  40.0618 15.73181783  1300,2022-045AL,52365,6727.947,91.534,352.071,347.554,0
GENERATED VIA SPACETRACK.ORG API,18 SPCS,52365,STARLINK-3874,PAYLOAD,U,22045AL,2022-06-24 06:00:02,160,15.73218502,0.0003607,53.2142,162.2637,9.9795,130.2583,0,999,1126,-0.0003874,-0.00054705,0,3501128,0 STARLINK-3874,1 52365U 22045AL  22175.25002315 -.00054705  00000-0 -38740-3 0  9997,2 52365  53.2142 162.2637 0003607   9.9795 130.2583 15.73218502 11268,2022-045AL,52365,6727.842,91.532,352.134,347.281,0
GENERATED VIA SPACETRACK.ORG API,18 SPCS,52365,STARLINK-3874,PAYLOAD,U,22045AL,2022-06-24 14:00:01,224,15.73217663,0.0003522,53.2136,160.6137,7.7973,221.2889,0,999,130,-0.00022729,-0.00032435,0,3501501,0 STARLINK-3874,1 52365U 22045AL  22175.58334491 -.00032435  00000-0 -22729-3 0  9992,2 52365  53.2136 160.6137 0003522   7.7973 221.2889 15.73217663  1309,2022-045AL,52365,6727.845,91.532,352.079,347.34,0
GENERATED VIA SPACETRACK.ORG API,18 SPCS,52365,STARLINK-3874,PAYLOAD,U,22045AL,2022-06-24 22:00:01,999584,15.73176626,0.0003253,53.2139,158.9626,7.5031,310.5947,0,999,1136,-3.2125e-06,-1.074e-05,0,3501714,0 STARLINK-3874,1 52365U 22045AL  22175.91668981 -.00001074  00000-0 -32125-5 0  9991,2 52365  53.2139 158.9626 0003253   7.5031 310.5947 15.73176626 11366,2022-045AL,52365,6727.962,91.535,352.015,347.638,0
GENERATED VIA SPACETRACK.ORG API,18 SPCS,52365,STARLINK-3874,PAYLOAD,U,22045AL,2022-06-24 22:00:01,999584,15.73176626,0.0003253,53.2139,158.9626,7.5031,310.5947,0,999,130,-3.2125e-06,-1.074e-05,0,3501798,0 STARLINK-3874,1 52365U 22045AL  22175.91668981 -.00001074  00000-0 -32125-5 0  9991,2 52365  53.2139 158.9626 0003253   7.5031 310.5947 15.73176626  1309,2022-045AL,52365,6727.962,91.535,352.015,347.638,0
